BLUEWALKER-3            
1 53807U 22111AL  26199.29726005  .00002622  00000+0  77919-4 0  9996
2 53807  53.2279 247.8770 0004598 280.0203  80.0283 15.38628548214995
